{"fetched_at":"2026-07-22T07:10:07.032Z","source":"https://celestrak.org/NORAD/elements/gp.php?NAME=SPOT&FORMAT=JSON","constellation":"spot","records":[{"OBJECT_NAME":"SPOT 6","OBJECT_ID":"2012-047A","EPOCH":"2026-07-21T15:16:06.245760","CLASSIFICATION_TYPE":"U","MEAN_MOTION":14.58541618,"ECCENTRICITY":0.00011318,"INCLINATION":98.2099,"RA_OF_ASC_NODE":269.5388,"ARG_OF_PERICENTER":92.8265,"MEAN_ANOMALY":267.3064,"EPHEMERIS_TYPE":0,"NORAD_CAT_ID":38755,"ELEMENT_SET_NO":999,"REV_AT_EPOCH":73807,"BSTAR":0.000087105829,"MEAN_MOTION_DOT":0.00000359,"MEAN_MOTION_DDOT":0},{"OBJECT_NAME":"SPOT 7","OBJECT_ID":"2014-034A","EPOCH":"2026-07-21T15:08:57.816672","CLASSIFICATION_TYPE":"U","MEAN_MOTION":14.60985245,"ECCENTRICITY":0.00016667,"INCLINATION":98.0607,"RA_OF_ASC_NODE":264.2324,"ARG_OF_PERICENTER":94.9835,"MEAN_ANOMALY":265.1556,"EPHEMERIS_TYPE":0,"NORAD_CAT_ID":40053,"ELEMENT_SET_NO":999,"REV_AT_EPOCH":64216,"BSTAR":0.00011448368,"MEAN_MOTION_DOT":0.00000516,"MEAN_MOTION_DDOT":0}]}
